[{"OBJECT_NAME":"YINHE-1","OBJECT_ID":"2020-004A","EPOCH":"2026-03-09T22:55:05.644416","MEAN_MOTION":14.79015566,"ECCENTRICITY":0.00131658,"INCLINATION":86.3997,"RA_OF_ASC_NODE":160.1115,"ARG_OF_PERICENTER":358.9121,"MEAN_ANOMALY":1.2068,"EPHEMERIS_TYPE":0,"CLASSIFICATION_TYPE":"U","NORAD_CAT_ID":45024,"ELEMENT_SET_NO":999,"REV_AT_EPOCH":33125,"BSTAR":0.00018596346,"MEAN_MOTION_DOT":1.401e-5,"MEAN_MOTION_DDOT":0},{"OBJECT_NAME":"CZ-6A DEB","OBJECT_ID":"2024-140ET","EPOCH":"2026-03-09T01:14:12.255072","MEAN_MOTION":14.56800008,"ECCENTRICITY":0.01113125,"INCLINATION":89.0905,"RA_OF_ASC_NODE":288.7867,"ARG_OF_PERICENTER":249.4824,"MEAN_ANOMALY":109.4413,"EPHEMERIS_TYPE":0,"CLASSIFICATION_TYPE":"U","NORAD_CAT_ID":60768,"ELEMENT_SET_NO":999,"REV_AT_EPOCH":8341,"BSTAR":0.00081015077,"MEAN_MOTION_DOT":3.961e-5,"MEAN_MOTION_DDOT":0}]
